$$SOE
2459580.500000000, A.D. 2022-Jan-01 00:00:00.0000, 5.066465896649104E+08, 5.185417328581452E+06, 3.617391540644877E+07,
2459587.500000000, A.D. 2022-Jan-08 00:00:00.0000, 5.080163767040161E+08, 1.553142963170026E+07, 3.539965042533853E+07,
2459594.500000000, A.D. 2022-Jan-15 00:00:00.0000, 5.091998461607122E+08, 2.587142797359508E+07, 3.461233350779767E+07,
2459601.500000000, A.D. 2022-Jan-22 00:00:00.0000, 5.101982536983614E+08, 3.620170642588539E+07, 3.381237037951384E+07,
2459608.500000000, A.D. 2022-Jan-29 00:00:00.0000, 5.110129337110676E+08, 4.651863392466508E+07, 3.300016637781176E+07,
2459615.500000000, A.D. 2022-Feb-05 00:00:00.0000, 5.116452934135582E+08, 5.681865487025704E+07, 3.217612622093413E+07,
2459622.500000000, A.D. 2022-Feb-12 00:00:00.0000, 5.120968091352807E+08, 6.709828847726669E+07, 3.134065351028284E+07,
2459629.500000000, A.D. 2022-Feb-19 00:00:00.0000, 5.123690235012293E+08, 7.735412925073351E+07, 3.049415028046785E+07,
2459636.500000000, A.D. 2022-Feb-26 00:00:00.0000, 5.124635421957734E+08, 8.758284787257721E+07, 2.963701665815913E+07,
2459643.500000000, A.D. 2022-Mar-05 00:00:00.0000, 5.123820304759659E+08, 9.778119188858932E+07, 2.876965056439143E+07,
2459650.500000000, A.D. 2022-Mar-12 00:00:00.0000, 5.121262096625938E+08, 1.079459861375221E+08, 2.789244743415339E+07,
2459657.500000000, A.D. 2022-Mar-19 00:00:00.0000, 5.116978536858006E+08, 1.180741329577643E+08, 2.700579994850670E+07,
2459664.500000000, A.D. 2022-Mar-26 00:00:00.0000, 5.110987857128676E+08, 1.281626121732529E+08, 2.611009777614030E+07,
2459671.500000000, A.D. 2022-Apr-02 00:00:00.0000, 5.103308749306565E+08, 1.382084808103940E+08, 2.520572731300870E+07,
2459678.500000000, A.D. 2022-Apr-09 00:00:00.0000, 5.093960337589095E+08, 1.482088725582084E+08, 2.429307139489458E+07,
2459685.500000000, A.D. 2022-Apr-16 00:00:00.0000, 5.082962158545160E+08, 1.581609976328329E+08, 2.337250900288995E+07,
2459692.500000000, A.D. 2022-Apr-23 00:00:00.0000, 5.070334136397141E+08, 1.680621441382695E+08, 2.244441516617162E+07,
2459699.500000000, A.D. 2022-Apr-30 00:00:00.0000, 5.056096534870045E+08, 1.779096786864672E+08, 2.150916104981523E+07,
2459706.500000000, A.D. 2022-May-07 00:00:00.0000, 5.040269916268960E+08, 1.877010443101271E+08, 2.056711378500599E+07,
2459713.500000000, A.D. 2022-May-14 00:00:00.0000, 5.022875121689649E+08, 1.974337587125889E+08, 1.961863616179715E+07,
2459720.500000000, A.D. 2022-May-21 00:00:00.0000, 5.003933252055715E+08, 2.071054136203405E+08, 1.866408643217182E+07,
2459727.500000000, A.D. 2022-May-28 00:00:00.0000, 4.983465645202171E+08, 2.167136742862307E+08, 1.770381818853307E+07,
2459734.500000000, A.D. 2022-Jun-04 00:00:00.0000, 4.961493851783180E+08, 2.262562788370561E+08, 1.673818026618801E+07,
2459741.500000000, A.D. 2022-Jun-11 00:00:00.0000, 4.938039611453921E+08, 2.357310374738776E+08, 1.576751665626799E+07,
2459748.500000000, A.D. 2022-Jun-18 00:00:00.0000, 4.913124829712950E+08, 2.451358315442033E+08, 1.479216642614585E+07,
2459755.500000000, A.D. 2022-Jun-25 00:00:00.0000, 4.886771555694775E+08, 2.544686124583837E+08, 1.381246364146177E+07,
2459762.500000000, A.D. 2022-Jul-02 00:00:00.0000, 4.859001962244188E+08, 2.637274003896683E+08, 1.282873727161042E+07,
2459769.500000000, A.D. 2022-Jul-09 00:00:00.0000, 4.829838332161303E+08, 2.729102829396993E+08, 1.184131105686745E+07,
2459776.500000000, A.D. 2022-Jul-16 00:00:00.0000, 4.799303050042636E+08, 2.820154148566507E+08, 1.085050343022302E+07,
2459783.500000000, A.D. 2022-Jul-23 00:00:00.0000, 4.767418577704728E+08, 2.910410188888712E+08, 9.856627701651871E+06,
2459790.500000000, A.D. 2022-Jul-30 00:00:00.0000, 4.734207414019752E+08, 2.999853844262671E+08, 8.859992222998485E+06,
2459797.500000000, A.D. 2022-Aug-06 00:00:00.0000, 4.699692075149949E+08, 3.088468645822788E+08, 7.860900256164670E+06,
2459804.500000000, A.D. 2022-Aug-13 00:00:00.0000, 4.663895086934052E+08, 3.176238744744318E+08, 6.859649844933018E+06,
2459811.500000000, A.D. 2022-Aug-20 00:00:00.0000, 4.626838973713509E+08, 3.263148902036890E+08, 5.856533793040872E+06,
2459818.500000000, A.D. 2022-Aug-27 00:00:00.0000, 4.588546244262421E+08, 3.349184478094600E+08, 4.851839682667866E+06,
2459825.500000000, A.D. 2022-Sep-03 00:00:00.0000, 4.549039377280722E+08, 3.434331420928056E+08, 3.845849901290044E+06,
2459832.500000000, A.D. 2022-Sep-10 00:00:00.0000, 4.508340807329600E+08, 3.518576253346245E+08, 2.838841670275152E+06,
2459839.500000000, A.D. 2022-Sep-17 00:00:00.0000, 4.466472911479990E+08, 3.601906059098276E+08, 1.831087072006851E+06,
2459846.500000000, A.D. 2022-Sep-24 00:00:00.0000, 4.423457997255363E+08, 3.684308467492683E+08, 8.228530654190183E+05,
2459853.500000000, A.D. 2022-Oct-01 00:00:00.0000, 4.379318294246814E+08, 3.765771636296459E+08, -1.855985343870819E+05,
2459860.500000000, A.D. 2022-Oct-08 00:00:00.0000, 4.334075953453122E+08, 3.846284238155592E+08, -1.194011107716203E+06,
2459867.500000000, A.D. 2022-Oct-15 00:00:00.0000, 4.287753045001608E+08, 3.925835462542562E+08, -2.202133130204558E+06,
2459874.500000000, A.D. 2022-Oct-22 00:00:00.0000, 4.240371532401865E+08, 4.004415016409661E+08, -3.209717859114677E+06,
2459881.500000000, A.D. 2022-Oct-29 00:00:00.0000, 4.191953248291500E+08, 4.082013097639494E+08, -4.216523247564375E+06,
2459888.500000000, A.D. 2022-Nov-05 00:00:00.0000, 4.142519892651759E+08, 4.158620368717956E+08, -5.222312055889368E+06,
2459895.500000000, A.D. 2022-Nov-12 00:00:00.0000, 4.092093033818168E+08, 4.234227943309550E+08, -6.226851876906902E+06,
2459902.500000000, A.D. 2022-Nov-19 00:00:00.0000, 4.040694105065331E+08, 4.308827376206084E+08, -7.229915087490976E+06,
2459909.500000000, A.D. 2022-Nov-26 00:00:00.0000, 3.988344399364581E+08, 4.382410652689067E+08, -8.231278783350646E+06,
2459916.500000000, A.D. 2022-Dec-03 00:00:00.0000, 3.935065063953266E+08, 4.454970177203295E+08, -9.230724713502645E+06,
2459923.500000000, A.D. 2022-Dec-10 00:00:00.0000, 3.880877095150635E+08, 4.526498761540326E+08, -1.022803921735623E+07,
2459930.500000000, A.D. 2022-Dec-17 00:00:00.0000, 3.825801333648484E+08, 4.596989612292510E+08, -1.122301316894054E+07,
2459937.500000000, A.D. 2022-Dec-24 00:00:00.0000, 3.769858461352475E+08, 4.666436316929004E+08, -1.221544194387153E+07,
2459944.500000000, A.D. 2022-Dec-31 00:00:00.0000, 3.713069003334594E+08, 4.734832829577727E+08, -1.320512543324402E+07,
2459951.500000000, A.D. 2023-Jan-07 00:00:00.0000, 3.655453336109421E+08, 4.802173466142009E+08, -1.419186803723660E+07,
2459958.500000000, A.D. 2023-Jan-14 00:00:00.0000, 3.597031682544362E+08, 4.868452913718033E+08, -1.517547841751534E+07,
2459965.500000000, A.D. 2023-Jan-21 00:00:00.0000, 3.537824086932207E+08, 4.933666222591336E+08, -1.615576920855713E+07,
2459972.500000000, A.D. 2023-Jan-28 00:00:00.0000, 3.477850406893674E+08, 4.997808778869788E+08, -1.713255704040235E+07,
2459979.500000000, A.D. 2023-Feb-04 00:00:00.0000, 3.417130320014761E+08, 5.060876288031921E+08, -1.810566260644108E+07,
2459986.500000000, A.D. 2023-Feb-11 00:00:00.0000, 3.355683327249863E+08, 5.122864767452115E+08, -1.907491062742743E+07,
2459993.500000000, A.D. 2023-Feb-18 00:00:00.0000, 3.293528752442414E+08, 5.183770539671366E+08, -2.004012977319053E+07,
2460000.500000000, A.D. 2023-Feb-25 00:00:00.0000, 3.230685740577483E+08, 5.243590224796013E+08, -2.100115257934225E+07,
2460007.500000000, A.D. 2023-Mar-04 00:00:00.0000, 3.167173255774753E+08, 5.302320732211212E+08, -2.195781536676314E+07,
2460014.500000000, A.D. 2023-Mar-11 00:00:00.0000, 3.103010079293438E+08, 5.359959251612441E+08, -2.290995816632652E+07,
2460021.500000000, A.D. 2023-Mar-18 00:00:00.0000, 3.038214808004185E+08, 5.416503242860091E+08, -2.385742465705600E+07,
2460028.500000000, A.D. 2023-Mar-25 00:00:00.0000, 2.972805855346479E+08, 5.471950424188426E+08, -2.480006214003640E+07,
2460035.500000000, A.D. 2023-Apr-01 00:00:00.0000, 2.906801459006044E+08, 5.526298762709284E+08, -2.573772155472556E+07,
2460042.500000000, A.D. 2023-Apr-08 00:00:00.0000, 2.840219689151887E+08, 5.579546479463990E+08, -2.667025738103342E+07,
2460049.500000000, A.D. 2023-Apr-15 00:00:00.0000, 2.773078433853021E+08, 5.631692057958108E+08, -2.759752730307385E+07,
2460056.500000000, A.D. 2023-Apr-22 00:00:00.0000, 2.705395379754082E+08, 5.682734225661893E+08, -2.851939204982844E+07,
2460063.500000000, A.D. 2023-Apr-29 00:00:00.0000, 2.637188015356727E+08, 5.732671931010983E+08, -2.943571547959945E+07,
2460070.500000000, A.D. 2023-May-06 00:00:00.0000, 2.568473639300145E+08, 5.781504333714042E+08, -3.034636460139027E+07,
2460077.500000000, A.D. 2023-May-13 00:00:00.0000, 2.499269363862699E+08, 5.829230799425153E+08, -3.125120951676056E+07,
2460084.500000000, A.D. 2023-May-20 00:00:00.0000, 2.429592116015776E+08, 5.875850893866196E+08, -3.215012334395245E+07,
2460091.500000000, A.D. 2023-May-27 00:00:00.0000, 2.359458637955446E+08, 5.921364376101897E+08, -3.304298214469332E+07,
2460098.500000000, A.D. 2023-Jun-03 00:00:00.0000, 2.288885487679145E+08, 5.965771191224393E+08, -3.392966485712305E+07,
2460105.500000000, A.D. 2023-Jun-10 00:00:00.0000, 2.217889039836926E+08, 6.009071462306691E+08, -3.481005323845303E+07,
2460112.500000000, A.D. 2023-Jun-17 00:00:00.0000, 2.146485487739690E+08, 6.051265481021112E+08, -3.568403183072272E+07,
2460119.500000000, A.D. 2023-Jun-24 00:00:00.0000, 2.074690849716892E+08, 6.092353697477010E+08, -3.655148797473571E+07,
2460126.500000000, A.D. 2023-Jul-01 00:00:00.0000, 2.002520982349713E+08, 6.132336717557733E+08, -3.741231182798970E+07,
2460133.500000000, A.D. 2023-Jul-08 00:00:00.0000, 1.929991583836171E+08, 6.171215315972321E+08, -3.826639616609195E+07,
2460140.500000000, A.D. 2023-Jul-15 00:00:00.0000, 1.857118174711744E+08, 6.208990436714619E+08, -3.911363608183482E+07,
2460147.500000000, A.D. 2023-Jul-22 00:00:00.0000, 1.783916091128992E+08, 6.245663170585899E+08, -3.995392898951364E+07,
$$EOE